0 COSMOS 2251 DEB
1 35474U 93036ALU 13281.59422588  .00003831  00000-0  11493-2 0  7973
2 35474 074.0059 115.5889 0005364 018.7169 037.3238 14.43081041234851
0 COSMOS 2251 DEB
1 35474U 93036ALU 13289.49043615  .00007282  00000-0  21726-2 0  8009
2 35474 074.0061 100.8985 0005696 001.8459 020.3517 14.43165480235999
0 COSMOS 2251 DEB
1 35474U 93036ALU 13292.47291100  .00006921  00000-0  20637-2 0  8015
2 35474 074.0065 095.3487 0005887 355.7763 035.5388 14.43203848236423
0 COSMOS 2251 DEB
1 35474U 93036ALU 13294.48788535  .00008478  00000-0  25244-2 0  8020
2 35474 074.0072 091.5993 0006026 350.8550 065.1956 14.43227694236714
